[{"OBJECT_NAME":"2026-027A","OBJECT_ID":"2026-027A","EPOCH":"2026-03-13T22:08:58.232544","MEAN_MOTION":15.17797007,"ECCENTRICITY":0.00104862,"INCLINATION":97.4902,"RA_OF_ASC_NODE":201.8917,"ARG_OF_PERICENTER":179.8884,"MEAN_ANOMALY":180.2354,"EPHEMERIS_TYPE":0,"CLASSIFICATION_TYPE":"U","NORAD_CAT_ID":67746,"ELEMENT_SET_NO":999,"REV_AT_EPOCH":450,"BSTAR":0.00047854362,"MEAN_MOTION_DOT":9.624e-5,"MEAN_MOTION_DDOT":0},{"OBJECT_NAME":"2026-027B","OBJECT_ID":"2026-027B","EPOCH":"2026-03-13T22:06:08.247456","MEAN_MOTION":15.1789659,"ECCENTRICITY":0.00106142,"INCLINATION":97.4897,"RA_OF_ASC_NODE":201.8922,"ARG_OF_PERICENTER":182.1972,"MEAN_ANOMALY":177.9217,"EPHEMERIS_TYPE":0,"CLASSIFICATION_TYPE":"U","NORAD_CAT_ID":67747,"ELEMENT_SET_NO":999,"REV_AT_EPOCH":450,"BSTAR":0.00047000301,"MEAN_MOTION_DOT":9.478e-5,"MEAN_MOTION_DDOT":0},{"OBJECT_NAME":"2026-027C","OBJECT_ID":"2026-027C","EPOCH":"2026-03-13T22:04:07.448160","MEAN_MOTION":15.17876307,"ECCENTRICITY":0.00109824,"INCLINATION":97.491,"RA_OF_ASC_NODE":201.8986,"ARG_OF_PERICENTER":184.2748,"MEAN_ANOMALY":175.8394,"EPHEMERIS_TYPE":0,"CLASSIFICATION_TYPE":"U","NORAD_CAT_ID":67748,"ELEMENT_SET_NO":999,"REV_AT_EPOCH":450,"BSTAR":0.00034012561,"MEAN_MOTION_DOT":6.835e-5,"MEAN_MOTION_DDOT":0},{"OBJECT_NAME":"2026-027D","OBJECT_ID":"2026-027D","EPOCH":"2026-03-13T21:57:01.581696","MEAN_MOTION":15.18268693,"ECCENTRICITY":0.00105385,"INCLINATION":97.4902,"RA_OF_ASC_NODE":201.9034,"ARG_OF_PERICENTER":189.8728,"MEAN_ANOMALY":170.23,"EPHEMERIS_TYPE":0,"CLASSIFICATION_TYPE":"U","NORAD_CAT_ID":67749,"ELEMENT_SET_NO":999,"REV_AT_EPOCH":445,"BSTAR":0.00058376846,"MEAN_MOTION_DOT":0.0001192,"MEAN_MOTION_DDOT":0},{"OBJECT_NAME":"2026-027E","OBJECT_ID":"2026-027E","EPOCH":"2026-03-13T21:57:33.191136","MEAN_MOTION":15.18206171,"ECCENTRICITY":0.000983,"INCLINATION":97.4914,"RA_OF_ASC_NODE":201.9073,"ARG_OF_PERICENTER":190.4187,"MEAN_ANOMALY":169.6844,"EPHEMERIS_TYPE":0,"CLASSIFICATION_TYPE":"U","NORAD_CAT_ID":67750,"ELEMENT_SET_NO":999,"REV_AT_EPOCH":450,"BSTAR":0.00049900788,"MEAN_MOTION_DOT":0.00010156,"MEAN_MOTION_DDOT":0},{"OBJECT_NAME":"2026-027F","OBJECT_ID":"2026-027F","EPOCH":"2026-03-12T19:00:38.279808","MEAN_MOTION":15.17898571,"ECCENTRICITY":0.00092398,"INCLINATION":97.4916,"RA_OF_ASC_NODE":200.8018,"ARG_OF_PERICENTER":190.5872,"MEAN_ANOMALY":169.5169,"EPHEMERIS_TYPE":0,"CLASSIFICATION_TYPE":"U","NORAD_CAT_ID":67751,"ELEMENT_SET_NO":999,"REV_AT_EPOCH":433,"BSTAR":0.00019459815,"MEAN_MOTION_DOT":3.881e-5,"MEAN_MOTION_DDOT":0},{"OBJECT_NAME":"2026-027G","OBJECT_ID":"2026-027G","EPOCH":"2026-03-13T22:46:07.720608","MEAN_MOTION":15.12217927,"ECCENTRICITY":0.00121957,"INCLINATION":97.4912,"RA_OF_ASC_NODE":201.861,"ARG_OF_PERICENTER":211.8533,"MEAN_ANOMALY":148.1961,"EPHEMERIS_TYPE":0,"CLASSIFICATION_TYPE":"U","NORAD_CAT_ID":67752,"ELEMENT_SET_NO":999,"REV_AT_EPOCH":450,"BSTAR":0.00049252344,"MEAN_MOTION_DOT":8.461e-5,"MEAN_MOTION_DDOT":0},{"OBJECT_NAME":"JIELONG-3 R/B","OBJECT_ID":"2026-027H","EPOCH":"2026-03-13T21:11:32.289504","MEAN_MOTION":15.81302257,"ECCENTRICITY":0.01962476,"INCLINATION":97.5099,"RA_OF_ASC_NODE":204.2799,"ARG_OF_PERICENTER":229.6614,"MEAN_ANOMALY":128.7372,"EPHEMERIS_TYPE":0,"CLASSIFICATION_TYPE":"U","NORAD_CAT_ID":67753,"ELEMENT_SET_NO":999,"REV_AT_EPOCH":464,"BSTAR":0.00079342995,"MEAN_MOTION_DOT":0.00697891,"MEAN_MOTION_DDOT":2.353282e-6},{"OBJECT_NAME":"2025-313BF","OBJECT_ID":"2025-313BF","EPOCH":"2026-03-13T03:49:44.167872","MEAN_MOTION":15.305841,"ECCENTRICITY":0.00075237,"INCLINATION":97.3987,"RA_OF_ASC_NODE":148.8127,"ARG_OF_PERICENTER":320.9316,"MEAN_ANOMALY":39.1381,"EPHEMERIS_TYPE":0,"CLASSIFICATION_TYPE":"U","NORAD_CAT_ID":67755,"ELEMENT_SET_NO":999,"REV_AT_EPOCH":705,"BSTAR":0.00042800467,"MEAN_MOTION_DOT":0.00012596,"MEAN_MOTION_DDOT":0},{"OBJECT_NAME":"2026-028A","OBJECT_ID":"2026-028A","EPOCH":"2026-03-13T07:27:10.881504","MEAN_MOTION":1.00209112,"ECCENTRICITY":0.00035371,"INCLINATION":0.462,"RA_OF_ASC_NODE":290.757,"ARG_OF_PERICENTER":43.0432,"MEAN_ANOMALY":26.1625,"EPHEMERIS_TYPE":0,"CLASSIFICATION_TYPE":"U","NORAD_CAT_ID":67756,"ELEMENT_SET_NO":999,"REV_AT_EPOCH":29,"BSTAR":0,"MEAN_MOTION_DOT":-9.5e-7,"MEAN_MOTION_DDOT":0},{"OBJECT_NAME":"JAM-E JAM 1","OBJECT_ID":"2026-028B","EPOCH":"2026-03-12T19:01:04.274112","MEAN_MOTION":1.00231393,"ECCENTRICITY":0.00057502,"INCLINATION":0.4861,"RA_OF_ASC_NODE":286.1715,"ARG_OF_PERICENTER":134.5705,"MEAN_ANOMALY":68.8815,"EPHEMERIS_TYPE":0,"CLASSIFICATION_TYPE":"U","NORAD_CAT_ID":67757,"ELEMENT_SET_NO":999,"REV_AT_EPOCH":15,"BSTAR":0,"MEAN_MOTION_DOT":1.55e-6,"MEAN_MOTION_DDOT":0},{"OBJECT_NAME":"KUIPER-00159","OBJECT_ID":"2026-030A","EPOCH":"2026-03-13T15:59:38.472000","MEAN_MOTION":15.35996984,"ECCENTRICITY":0.00048995,"INCLINATION":51.8865,"RA_OF_ASC_NODE":199.9851,"ARG_OF_PERICENTER":52.1163,"MEAN_ANOMALY":308.0266,"EPHEMERIS_TYPE":0,"CLASSIFICATION_TYPE":"U","NORAD_CAT_ID":67764,"ELEMENT_SET_NO":999,"REV_AT_EPOCH":570,"BSTAR":0.0012414249,"MEAN_MOTION_DOT":0.00044068,"MEAN_MOTION_DDOT":0},{"OBJECT_NAME":"KUIPER-00160","OBJECT_ID":"2026-030B","EPOCH":"2026-03-13T16:02:43.294560","MEAN_MOTION":15.35816753,"ECCENTRICITY":0.00055625,"INCLINATION":51.8807,"RA_OF_ASC_NODE":199.9874,"ARG_OF_PERICENTER":64.5315,"MEAN_ANOMALY":295.6246,"EPHEMERIS_TYPE":0,"CLASSIFICATION_TYPE":"U","NORAD_CAT_ID":67765,"ELEMENT_SET_NO":999,"REV_AT_EPOCH":570,"BSTAR":0.001113782,"MEAN_MOTION_DOT":0.00039246,"MEAN_MOTION_DDOT":0},{"OBJECT_NAME":"KUIPER-00177","OBJECT_ID":"2026-030C","EPOCH":"2026-03-13T22:00:01.999584","MEAN_MOTION":15.27692706,"ECCENTRICITY":0.00027944,"INCLINATION":51.8843,"RA_OF_ASC_NODE":198.7289,"ARG_OF_PERICENTER":15.1568,"MEAN_ANOMALY":295.1771,"EPHEMERIS_TYPE":0,"CLASSIFICATION_TYPE":"U","NORAD_CAT_ID":67766,"ELEMENT_SET_NO":999,"REV_AT_EPOCH":563,"BSTAR":0.00079364385,"MEAN_MOTION_DOT":0.00021496,"MEAN_MOTION_DDOT":0},{"OBJECT_NAME":"KUIPER-00178","OBJECT_ID":"2026-030D","EPOCH":"2026-03-13T22:00:01.999584","MEAN_MOTION":15.31721499,"ECCENTRICITY":0.00075048,"INCLINATION":51.8842,"RA_OF_ASC_NODE":198.8767,"ARG_OF_PERICENTER":56.1319,"MEAN_ANOMALY":204.1447,"EPHEMERIS_TYPE":0,"CLASSIFICATION_TYPE":"U","NORAD_CAT_ID":67767,"ELEMENT_SET_NO":999,"REV_AT_EPOCH":501,"BSTAR":-0.00037818484,"MEAN_MOTION_DOT":-0.00012117,"MEAN_MOTION_DDOT":0},{"OBJECT_NAME":"KUIPER-00180","OBJECT_ID":"2026-030E","EPOCH":"2026-03-13T22:00:01.999584","MEAN_MOTION":15.30114426,"ECCENTRICITY":0.00151708,"INCLINATION":51.88,"RA_OF_ASC_NODE":199.4307,"ARG_OF_PERICENTER":80.7688,"MEAN_ANOMALY":257.1687,"EPHEMERIS_TYPE":0,"CLASSIFICATION_TYPE":"U","NORAD_CAT_ID":67768,"ELEMENT_SET_NO":999,"REV_AT_EPOCH":246,"BSTAR":0.00038187065,"MEAN_MOTION_DOT":0.00010977,"MEAN_MOTION_DDOT":0},{"OBJECT_NAME":"KUIPER-00197","OBJECT_ID":"2026-030F","EPOCH":"2026-03-12T14:43:39.233856","MEAN_MOTION":15.36533933,"ECCENTRICITY":0.00017784,"INCLINATION":51.8826,"RA_OF_ASC_NODE":204.9278,"ARG_OF_PERICENTER":60.0576,"MEAN_ANOMALY":300.0587,"EPHEMERIS_TYPE":0,"CLASSIFICATION_TYPE":"U","NORAD_CAT_ID":67769,"ELEMENT_SET_NO":999,"REV_AT_EPOCH":554,"BSTAR":0.00062765359,"MEAN_MOTION_DOT":0.00022408,"MEAN_MOTION_DDOT":0}]
